ALOS-2                  
1 39766U 14029A   26179.56912500  .00001942  00000+0  26683-3 0  9993
2 39766  97.9226 276.5699 0001634  89.7505 270.3894 14.79472464653263
KAZEOSAT 2              
1 40010U 14033A   26179.61388606  .00000042  00000+0  10694-4 0  9998
2 40010  97.5402  18.6222 0007098 285.9889  74.0545 14.85481079650652
HODOYOSHI-4             
1 40011U 14033B   26179.59928146  .00001419  00000+0  15913-3 0  9992
2 40011  97.5450   3.8711 0021992 268.0097  91.8602 14.88152635650508
DEIMOS-2                
1 40013U 14033D   26179.63804509  .00000654  00000+0  66879-4 0  9993
2 40013  97.5822  53.7244 0000963  53.6109 306.5200 14.93752851639436
HODOYOSHI-3             
1 40015U 14033F   26179.43467867  .00001012  00000+0  12261-3 0  9999
2 40015  97.6426 342.0230 0031791 319.5527  40.3326 14.85409977649295
SPOT 7                  
1 40053U 14034A   26179.61921094  .00000646  00000+0  14111-3 0  9997
2 40053  98.0630 241.8164 0001392  95.4580 264.6780 14.60968735638809
SKYSAT-B                
1 40072U 14037D   26179.62372002  .00001233  00000+0  14088-3 0  9997
2 40072  98.3843 139.2409 0004335 232.7221 127.3599 14.88054962647664
WORLDVIEW-3 (WV-3)      
1 40115U 14048A   26179.62195692  .00000766  00000+0  96032-4 0  9995
2 40115  97.8565 254.2969 0000072  52.9092 307.2130 14.85039550643601
GAOFEN-2                
1 40118U 14049A   26179.66281363  .00000679  00000+0  94703-4 0  9990
2 40118  98.0110 243.8590 0006881 185.3158 174.7982 14.80910175640936
YAOGAN-21               
1 40143U 14053A   26179.63452887  .00008784  00000+0  33823-3 0  9991
2 40143  97.1472 219.3788 0009531  60.1474 300.0712 15.26541985656705
YAOGAN-22               
1 40275U 14063A   26179.36519330 -.00000025  00000+0  57937-4 0  9999
2 40275 100.7738 330.8247 0006585 160.7217 199.4145 13.15531336561287
ASNARO                  
1 40298U 14070A   26179.61768437  .00011933  00000+0  56277-3 0  9998
2 40298  97.3456 255.4237 0006430 132.1884 227.9898 15.19606157645749
YAOGAN-24               
1 40310U 14072A   26179.60519584  .00000627  00000+0  98395-4 0  9997
2 40310  98.1497 317.0399 0013371 224.6186 135.3948 14.76098342625408
CBERS 4                 
1 40336U 14079A   26179.60772311  .00000394  00000+0  15168-3 0  9998
2 40336  98.3533 236.0810 0001503  54.0569 306.0757 14.35513116605590
YAOGAN-26               
1 40362U 14088A   26179.64311741  .00005902  00000+0  11544-3 0  9991
2 40362  97.0642 179.5859 0004588  40.2326 319.9264 15.47791785639478
SMAP                    
1 40376U 15003A   26179.63546051  .00000415  00000+0  89337-4 0  9997
2 40376  98.1276 186.5678 0001442  97.4720 262.6646 14.63376078609299
KOMPSAT-3A              
1 40536U 15014A   26179.57314071  .00027272  00000+0  38563-3 0  9999
2 40536  97.6883 171.7715 0057106 133.9189 226.6799 15.54547157623582
SENTINEL-2A             
1 40697U 15028A   26179.61329823  .00000377  00000+0  16050-3 0  9992
2 40697  98.5688 254.3030 0001190  92.8419 267.2900 14.30819249575366
GAOFEN-8                
1 40701U 15030A   26179.60778338  .00024683  00000+0  49985-3 0  9998
2 40701  97.6895  13.6668 0009630 147.7474 212.4365 15.46368998613215
CARBONITE 1 (CBNT-1)    
1 40718U 15032D   26179.64815558  .00001941  00000+0  24122-3 0  9996
2 40718  97.6506 357.2348 0012938 256.0632 103.9144 14.83621156591042
YAOGAN-27               
1 40878U 15040A   26179.58372536 -.00000480  00000+0 -11516-2 0  9990
2 40878 100.1150 165.4718 0007981 183.2407 176.8657 13.16068918519164
GAOFEN-9 01             
1 40894U 15047A   26179.60120326  .00001001  00000+0  12888-3 0  9998
2 40894  97.6270 214.7772 0028868 102.1501 258.2950 14.82905035581888
YAOGAN-28               
1 41026U 15064A   26179.65586919  .00006365  00000+0  23840-3 0  9992
2 41026  97.3086 317.6849 0011565 144.7455 215.4552 15.27561099592436
YAOGAN-29               
1 41038U 15069A   26179.64735271  .00000977  00000+0  12659-3 0  9995
2 41038  98.0026 208.2980 0002014  37.3786 322.7567 14.83096290572326
KENT RIDGE 1            
1 41167U 15077B   26179.62322370  .00003765  00000+0  12310-3 0  9999
2 41167  14.9780 180.9327 0008176  40.1144 319.9781 15.23196172582848
GAOFEN-4                
1 41194U 15083A   26179.54005676 -.00000323  00000+0  00000+0 0  9991
2 41194   0.3860  84.0131 0004263 110.8539  21.8883  1.00269753 38641
JASON-3                 
1 41240U 16002A   26179.57556236 -.00000077  00000+0 -60272-4 0  9990
2 41240  66.0416 101.8934 0008377 272.2106  87.7954 12.87623101488716
SENTINEL-3A             
1 41335U 16011A   26179.57760973  .00000097  00000+0  58209-4 0  9997
2 41335  98.6246 246.7975 0001431  96.3974 263.7369 14.26735611539683
ZIYUAN 3-02 (ZY 3-02)   
1 41556U 16033A   26179.63496425  .00004834  00000+0  21889-3 0  9997
2 41556  97.3840 255.1889 0012579 246.3421 113.6495 15.21284570559720
CARTOSAT-2C             
1 41599U 16040A   26179.65272538  .00005930  00000+0  28391-3 0  9994
2 41599  97.4480 239.4734 0010431  96.3347 263.9076 15.19280763555454
