OBJECT_NAME,OBJECT_ID,EPOCH,MEAN_MOTION,ECCENTRICITY,INCLINATION,RA_OF_ASC_NODE,ARG_OF_PERICENTER,MEAN_ANOMALY,EPHEMERIS_TYPE,CLASSIFICATION_TYPE,NORAD_CAT_ID,ELEMENT_SET_NO,REV_AT_EPOCH,BSTAR,MEAN_MOTION_DOT,MEAN_MOTION_DDOT
ALOS-2,2014-029A,2026-06-28T13:39:32.400000,14.79472464,.00016346,97.9226,276.5699,89.7505,270.3894,0,U,39766,999,65326,.26682779E-3,.1942E-4,0
KAZEOSAT 2,2014-033A,2026-06-28T14:43:59.755584,14.85481079,.00070982,97.5402,18.6222,285.9889,74.0545,0,U,40010,999,65065,.10693837E-4,.42E-6,0
HODOYOSHI-4,2014-033B,2026-06-28T14:22:57.918144,14.88152635,.00219927,97.5450,3.8711,268.0097,91.8602,0,U,40011,999,65050,.15912943E-3,.1419E-4,0
DEIMOS-2,2014-033D,2026-06-28T15:18:47.095776,14.93752851,.00009631,97.5822,53.7244,53.6109,306.5200,0,U,40013,999,63943,.66878683E-4,.654E-5,0
HODOYOSHI-3,2014-033F,2026-06-28T10:25:56.237088,14.85409977,.00317918,97.6426,342.0230,319.5527,40.3326,0,U,40015,999,64929,.12260627E-3,.1012E-4,0
SPOT 7,2014-034A,2026-06-28T14:51:39.825216,14.60968735,.00013924,98.0630,241.8164,95.4580,264.6780,0,U,40053,999,63880,.14111246E-3,.646E-5,0
SKYSAT-B,2014-037D,2026-06-28T14:58:09.409728,14.88054962,.00043354,98.3843,139.2409,232.7221,127.3599,0,U,40072,999,64766,.1408825E-3,.1233E-4,0
WORLDVIEW-3 (WV-3),2014-048A,2026-06-28T14:55:37.077888,14.85039550,.00000728,97.8565,254.2969,52.9092,307.2130,0,U,40115,999,64360,.96032149E-4,.766E-5,0
GAOFEN-2,2014-049A,2026-06-28T15:54:27.097632,14.80910175,.00068813,98.0110,243.8590,185.3158,174.7982,0,U,40118,999,64093,.94702549E-4,.679E-5,0
YAOGAN-21,2014-053A,2026-06-28T15:13:43.294368,15.26541985,.00095315,97.1472,219.3788,60.1474,300.0712,0,U,40143,999,65670,.3382284E-3,.8784E-4,0
YAOGAN-22,2014-063A,2026-06-28T08:45:52.701120,13.15531336,.00065853,100.7738,330.8247,160.7217,199.4145,0,U,40275,999,56128,.57936645E-4,-.25E-6,0
ASNARO,2014-070A,2026-06-28T14:49:27.929568,15.19606157,.00064303,97.3456,255.4237,132.1884,227.9898,0,U,40298,999,64574,.5627721E-3,.11933E-3,0
YAOGAN-24,2014-072A,2026-06-28T14:31:28.920576,14.76098342,.00133713,98.1497,317.0399,224.6186,135.3948,0,U,40310,999,62540,.98394582E-4,.627E-5,0
CBERS 4,2014-079A,2026-06-28T14:35:07.276704,14.35513116,.00015031,98.3533,236.0810,54.0569,306.0757,0,U,40336,999,60559,.15167895E-3,.394E-5,0
YAOGAN-26,2014-088A,2026-06-28T15:26:05.344224,15.47791785,.00045884,97.0642,179.5859,40.2326,319.9264,0,U,40362,999,63947,.11544394E-3,.5902E-4,0
SMAP,2015-003A,2026-06-28T15:15:03.788064,14.63376078,.00014423,98.1276,186.5678,97.4720,262.6646,0,U,40376,999,60929,.89337419E-4,.415E-5,0
KOMPSAT-3A,2015-014A,2026-06-28T13:45:19.357344,15.54547157,.00571069,97.6883,171.7715,133.9189,226.6799,0,U,40536,999,62358,.38563378E-3,.27272E-3,0
SENTINEL-2A,2015-028A,2026-06-28T14:43:08.967072,14.30819249,.00011907,98.5688,254.3030,92.8419,267.2900,0,U,40697,999,57536,.16049567E-3,.377E-5,0
GAOFEN-8,2015-030A,2026-06-28T14:35:12.484032,15.46368998,.00096307,97.6895,13.6668,147.7474,212.4365,0,U,40701,999,61321,.49985432E-3,.24683E-3,0
CARBONITE 1 (CBNT-1),2015-032D,2026-06-28T15:33:20.642112,14.83621156,.00129383,97.6506,357.2348,256.0632,103.9144,0,U,40718,999,59104,.24121649E-3,.1941E-4,0
YAOGAN-27,2015-040A,2026-06-28T14:00:33.871104,13.16068918,.00079816,100.1150,165.4718,183.2407,176.8657,0,U,40878,999,51916,-.11516484E-2,-.48E-5,0
GAOFEN-9 01,2015-047A,2026-06-28T14:25:43.961664,14.82905035,.00288681,97.6270,214.7772,102.1501,258.2950,0,U,40894,999,58188,.12887502E-3,.1001E-4,0
YAOGAN-28,2015-064A,2026-06-28T15:44:27.098016,15.27561099,.00115654,97.3086,317.6849,144.7455,215.4552,0,U,41026,999,59243,.23840122E-3,.6365E-4,0
YAOGAN-29,2015-069A,2026-06-28T15:32:11.274144,14.83096290,.00020145,98.0026,208.2980,37.3786,322.7567,0,U,41038,999,57232,.12659054E-3,.977E-5,0
KENT RIDGE 1,2015-077B,2026-06-28T14:57:26.527680,15.23196172,.00081764,14.9780,180.9327,40.1144,319.9781,0,U,41167,999,58284,.12310094E-3,.3765E-4,0
GAOFEN-4,2015-083A,2026-06-28T12:57:40.904064,1.00269753,.00042636,0.3860,84.0131,110.8539,21.8883,0,U,41194,999,3864,0,-.323E-5,0
JASON-3,2016-002A,2026-06-28T13:48:48.587904,12.87623101,.00083774,66.0416,101.8934,272.2106,87.7954,0,U,41240,999,48871,-.60272371E-4,-.77E-6,0
SENTINEL-3A,2016-011A,2026-06-28T13:51:45.480672,14.26735611,.00014318,98.6246,246.7975,96.3974,263.7369,0,U,41335,999,53968,.58209318E-4,.97E-6,0
ZIYUAN 3-02 (ZY 3-02),2016-033A,2026-06-28T15:14:20.911200,15.21284570,.00125797,97.3840,255.1889,246.3421,113.6495,0,U,41556,999,55972,.21888686E-3,.4834E-4,0
CARTOSAT-2C,2016-040A,2026-06-28T15:39:55.472832,15.19280763,.0010431,97.4480,239.4734,96.3347,263.9076,0,U,41599,999,55545,.2839112E-3,.593E-4,0
